start=new Date('2021-12-29T00:00:00.000Z').valueOf();
sats=[{"ECCENTRICITY":"0.00019900","MEAN_MOTION":"15.06393220","OBJECT_ID":"2020-073T","BSTAR":"0.00010962000000","MEAN_ELEMENT_THEORY":"SGP4","CLASSIFICATION_TYPE":"U","ARG_OF_PERICENTER":"60.1343","ELEMENT_SET_NO":"999","GP_ID":"192675771","CENTER_NAME":"EARTH","APOAPSIS":"548.612","EPHEMERIS_TYPE":"0","MEAN_MOTION_DDOT":"0.0000000000000","DECAY_DATE":null,"FILE":"3254265","SITE":"AFETR","COUNTRY_CODE":"US","INCLINATION":"53.0551","EPOCH":"2021-12-28T21:47:55.735008","TLE_LINE2":"2 46687  53.0551 258.0445 0001990  60.1343 299.9844 15.06393220 66532","SEMIMAJOR_AXIS":"6925.369","NORAD_CAT_ID":"46687","OBJECT_NAME":"STARLINK-1784","TIME_SYSTEM":"UTC","TLE_LINE1":"1 46687U 20073T   21362.90828397  .00001351  00000-0  10962-3 0  9994","RA_OF_ASC_NODE":"258.0445","RCS_SIZE":"LARGE","PERIOD":"95.593","MEAN_MOTION_DOT":"0.00001351","LAUNCH_DATE":"2020-10-18","PERIAPSIS":"545.856","REF_FRAME":"TEME","OBJECT_TYPE":"PAYLOAD","MEAN_ANOMALY":"299.9844","REV_AT_EPOCH":"6653"},{"TIME_SYSTEM":"UTC","OBJECT_NAME":"STARLINK-1786","TLE_LINE2":"2 46688  53.0550 253.4370 0007880 284.6457  75.3689 15.77500061 66603","SEMIMAJOR_AXIS":"6715.663","NORAD_CAT_ID":"46688","RA_OF_ASC_NODE":"253.4370","TLE_LINE1":"1 46688U 20073U   21362.89216033  .00230931  00000-0  13286-2 0  9990","RCS_SIZE":"LARGE","INCLINATION":"53.0550","EPOCH":"2021-12-28T21:24:42.652512","MEAN_ANOMALY":"75.3689","REV_AT_EPOCH":"6660","PERIAPSIS":"332.236","LAUNCH_DATE":"2020-10-18","PERIOD":"91.284","MEAN_MOTION_DOT":"0.00230931","REF_FRAME":"TEME","OBJECT_TYPE":"PAYLOAD","GP_ID":"192674019","ARG_OF_PERICENTER":"284.6457","CLASSIFICATION_TYPE":"U","ELEMENT_SET_NO":"999","APOAPSIS":"342.820","CENTER_NAME":"EARTH","EPHEMERIS_TYPE":"0","ECCENTRICITY":"0.00078800","OBJECT_ID":"2020-073U","MEAN_MOTION":"15.77500061","BSTAR":"0.00132860000000","MEAN_ELEMENT_THEORY":"SGP4","SITE":"AFETR","FILE":"3254265","COUNTRY_CODE":"US","DECAY_DATE":null,"MEAN_MOTION_DDOT":"0.0000000000000"},{"SITE":"AFETR","FILE":"3253660","COUNTRY_CODE":"US","MEAN_MOTION_DDOT":"0.0000000000000","DECAY_DATE":null,"ARG_OF_PERICENTER":"52.4101","CLASSIFICATION_TYPE":"U","ELEMENT_SET_NO":"999","GP_ID":"192639006","APOAPSIS":"548.750","CENTER_NAME":"EARTH","EPHEMERIS_TYPE":"0","ECCENTRICITY":"0.00021940","OBJECT_ID":"2020-073V","MEAN_MOTION":"15.06394286","BSTAR":"-0.00001444400000","MEAN_ELEMENT_THEORY":"SGP4","MEAN_ANOMALY":"307.7087","REV_AT_EPOCH":"6720","PERIOD":"95.593","MEAN_MOTION_DOT":"-0.00000497","PERIAPSIS":"545.712","LAUNCH_DATE":"2020-10-18","REF_FRAME":"TEME","OBJECT_TYPE":"PAYLOAD","TLE_LINE2":"2 46689  53.0551 295.6341 0002194  52.4101 307.7087 15.06394286 67204","SEMIMAJOR_AXIS":"6925.366","NORAD_CAT_ID":"46689","OBJECT_NAME":"STARLINK-1788","TIME_SYSTEM":"UTC","RA_OF_ASC_NODE":"295.6341","TLE_LINE1":"1 46689U 20073V   21362.33558851 -.00000497  00000-0 -14444-4 0  9990","RCS_SIZE":"LARGE","INCLINATION":"53.0551","EPOCH":"2021-12-28T08:03:14.847264"},{"OBJECT_ID":"2020-073W","MEAN_MOTION":"15.06398317","ECCENTRICITY":"0.00017130","BSTAR":"0.00033170000000","MEAN_ELEMENT_THEORY":"SGP4","ELEMENT_SET_NO":"999","ARG_OF_PERICENTER":"53.3404","CLASSIFICATION_TYPE":"U","GP_ID":"192675521","EPHEMERIS_TYPE":"0","CENTER_NAME":"EARTH","APOAPSIS":"548.405","MEAN_MOTION_DDOT":"0.0000000000000","DECAY_DATE":null,"FILE":"3254265","SITE":"AFETR","COUNTRY_CODE":"US","INCLINATION":"53.0539","EPOCH":"2021-12-28T22:23:44.903040","SEMIMAJOR_AXIS":"6925.354","TLE_LINE2":"2 46690  53.0539 267.9309 0001713  53.3404 306.7742 15.06398317 66395","NORAD_CAT_ID":"46690","TIME_SYSTEM":"UTC","OBJECT_NAME":"STARLINK-1789","RCS_SIZE":"LARGE","RA_OF_ASC_NODE":"267.9309","TLE_LINE1":"1 46690U 20073W   21362.93315860  .00004662  00000-0  33170-3 0  9991","MEAN_MOTION_DOT":"0.00004662","PERIOD":"95.592","LAUNCH_DATE":"2020-10-18","PERIAPSIS":"546.032","OBJECT_TYPE":"PAYLOAD","REF_FRAME":"TEME","MEAN_ANOMALY":"306.7742","REV_AT_EPOCH":"6639"},{"EPOCH":"2021-12-28T22:22:25.920480","INCLINATION":"53.0552","RCS_SIZE":"LARGE","TLE_LINE1":"1 46691U 20073X   21362.93224445 -.00000221  00000-0  41044-5 0  9999","RA_OF_ASC_NODE":"277.9547","NORAD_CAT_ID":"46691","TLE_LINE2":"2 46691  53.0552 277.9547 0001966  57.4336 302.6843 15.06400343 66250","SEMIMAJOR_AXIS":"6925.348","TIME_SYSTEM":"UTC","OBJECT_NAME":"STARLINK-1790","OBJECT_TYPE":"PAYLOAD","REF_FRAME":"TEME","MEAN_MOTION_DOT":"-0.00000221","PERIOD":"95.592","LAUNCH_DATE":"2020-10-18","PERIAPSIS":"545.851","REV_AT_EPOCH":"6625","MEAN_ANOMALY":"302.6843","MEAN_ELEMENT_THEORY":"SGP4","BSTAR":"0.00000410440000","OBJECT_ID":"2020-073X","MEAN_MOTION":"15.06400343","ECCENTRICITY":"0.00019660","EPHEMERIS_TYPE":"0","APOAPSIS":"548.574","CENTER_NAME":"EARTH","ELEMENT_SET_NO":"999","CLASSIFICATION_TYPE":"U","ARG_OF_PERICENTER":"57.4336","GP_ID":"192675271","MEAN_MOTION_DDOT":"0.0000000000000","DECAY_DATE":null,"COUNTRY_CODE":"US","SITE":"AFETR","FILE":"3254265"},{"ECCENTRICITY":"0.00018190","MEAN_MOTION":"15.06397785","OBJECT_ID":"2020-073Y","MEAN_ELEMENT_THEORY":"SGP4","BSTAR":"0.00025835000000","CLASSIFICATION_TYPE":"U","ARG_OF_PERICENTER":"58.2862","ELEMENT_SET_NO":"999","GP_ID":"192674520","APOAPSIS":"548.480","CENTER_NAME":"EARTH","EPHEMERIS_TYPE":"0","MEAN_MOTION_DDOT":"0.0000000000000","DECAY_DATE":null,"FILE":"3254265","SITE":"AFETR","COUNTRY_CODE":"US","INCLINATION":"53.0533","EPOCH":"2021-12-28T20:26:19.560192","TLE_LINE2":"2 46692  53.0533 293.3034 0001819  58.2862 301.8304 15.06397785 66037","NORAD_CAT_ID":"46692","SEMIMAJOR_AXIS":"6925.355","OBJECT_NAME":"STARLINK-1791","TIME_SYSTEM":"UTC","RA_OF_ASC_NODE":"293.3034","TLE_LINE1":"1 46692U 20073Y   21362.85161528  .00003568  00000-0  25835-3 0  9997","RCS_SIZE":"LARGE","PERIOD":"95.592","MEAN_MOTION_DOT":"0.00003568","PERIAPSIS":"545.961","LAUNCH_DATE":"2020-10-18","REF_FRAME":"TEME","OBJECT_TYPE":"PAYLOAD","MEAN_ANOMALY":"301.8304","REV_AT_EPOCH":"6603"},{"REF_FRAME":"TEME","OBJECT_TYPE":"PAYLOAD","PERIAPSIS":"545.951","LAUNCH_DATE":"2020-10-18","PERIOD":"95.592","MEAN_MOTION_DOT":"0.00001104","REV_AT_EPOCH":"6625","MEAN_ANOMALY":"301.2299","EPOCH":"2021-12-28T22:27:44.073792","INCLINATION":"53.0546","TLE_LINE1":"1 46693U 20073Z   21362.93592678  .00001104  00000-0  93001-4 0  9996","RA_OF_ASC_NODE":"277.9250","RCS_SIZE":"LARGE","OBJECT_NAME":"STARLINK-1792","TIME_SYSTEM":"UTC","TLE_LINE2":"2 46693  53.0546 277.9250 0001806  58.8867 301.2299 15.06404012 66250","NORAD_CAT_ID":"46693","SEMIMAJOR_AXIS":"6925.336","DECAY_DATE":null,"MEAN_MOTION_DDOT":"0.0000000000000","COUNTRY_CODE":"US","SITE":"AFETR","FILE":"3254265","BSTAR":"0.00009300100000","MEAN_ELEMENT_THEORY":"SGP4","ECCENTRICITY":"0.00018060","MEAN_MOTION":"15.06404012","OBJECT_ID":"2020-073Z","CENTER_NAME":"EARTH","APOAPSIS":"548.452","EPHEMERIS_TYPE":"0","GP_ID":"192674269","CLASSIFICATION_TYPE":"U","ARG_OF_PERICENTER":"58.8867","ELEMENT_SET_NO":"999"},{"SITE":"AFETR","FILE":"3254265","COUNTRY_CODE":"US","DECAY_DATE":null,"MEAN_MOTION_DDOT":"0.0000000000000","GP_ID":"192675021","CLASSIFICATION_TYPE":"U","ARG_OF_PERICENTER":"46.8869","ELEMENT_SET_NO":"999","CENTER_NAME":"EARTH","APOAPSIS":"550.374","EPHEMERIS_TYPE":"0","ECCENTRICITY":"0.00045540","OBJECT_ID":"2020-073AA","MEAN_MOTION":"15.06397911","MEAN_ELEMENT_THEORY":"SGP4","BSTAR":"0.00039635000000","MEAN_ANOMALY":"313.2500","REV_AT_EPOCH":"6653","LAUNCH_DATE":"2020-10-18","PERIAPSIS":"544.066","PERIOD":"95.592","MEAN_MOTION_DOT":"0.00005627","REF_FRAME":"TEME","OBJECT_TYPE":"PAYLOAD","OBJECT_NAME":"STARLINK-1793","TIME_SYSTEM":"UTC","TLE_LINE2":"2 46694  53.0531 258.1317 0004554  46.8869 313.2500 15.06397911 66530","NORAD_CAT_ID":"46694","SEMIMAJOR_AXIS":"6925.355","TLE_LINE1":"1 46694U 20073AA  21362.89354439  .00005627  00000-0  39635-3 0  9999","RA_OF_ASC_NODE":"258.1317","RCS_SIZE":"LARGE","INCLINATION":"53.0531","EPOCH":"2021-12-28T21:26:42.235296"},{"EPHEMERIS_TYPE":"0","APOAPSIS":"548.682","CENTER_NAME":"EARTH","ELEMENT_SET_NO":"999","CLASSIFICATION_TYPE":"U","ARG_OF_PERICENTER":"63.3262","GP_ID":"192675772","BSTAR":"0.00026911000000","MEAN_ELEMENT_THEORY":"SGP4","OBJECT_ID":"2020-073AC","MEAN_MOTION":"15.06395092","ECCENTRICITY":"0.00020980","COUNTRY_CODE":"US","SITE":"AFETR","FILE":"3254265","MEAN_MOTION_DDOT":"0.0000000000000","DECAY_DATE":null,"RCS_SIZE":"LARGE","TLE_LINE1":"1 46696U 20073AC  21362.91197384  .00003728  00000-0  26911-3 0  9991","RA_OF_ASC_NODE":"258.0282","NORAD_CAT_ID":"46696","TLE_LINE2":"2 46696  53.0547 258.0282 0002098  63.3262 296.7942 15.06395092 66534","SEMIMAJOR_AXIS":"6925.364","TIME_SYSTEM":"UTC","OBJECT_NAME":"STARLINK-1795","EPOCH":"2021-12-28T21:53:14.539776","INCLINATION":"53.0547","REV_AT_EPOCH":"6653","MEAN_ANOMALY":"296.7942","OBJECT_TYPE":"PAYLOAD","REF_FRAME":"TEME","MEAN_MOTION_DOT":"0.00003728","PERIOD":"95.592","PERIAPSIS":"545.776","LAUNCH_DATE":"2020-10-18"},{"ECCENTRICITY":"0.00018690","OBJECT_ID":"2020-073AE","MEAN_MOTION":"15.06399403","BSTAR":"0.00005661100000","MEAN_ELEMENT_THEORY":"SGP4","GP_ID":"192674020","CLASSIFICATION_TYPE":"U","ARG_OF_PERICENTER":"48.4246","ELEMENT_SET_NO":"999","APOAPSIS":"548.510","CENTER_NAME":"EARTH","EPHEMERIS_TYPE":"0","DECAY_DATE":null,"MEAN_MOTION_DDOT":"0.0000000000000","SITE":"AFETR","FILE":"3254265","COUNTRY_CODE":"US","INCLINATION":"53.0535","EPOCH":"2021-12-28T20:04:25.581216","TIME_SYSTEM":"UTC","OBJECT_NAME":"STARLINK-1797","TLE_LINE2":"2 46698  53.0535 278.3766 0001869  48.4246 311.6903 15.06399403 66248","NORAD_CAT_ID":"46698","SEMIMAJOR_AXIS":"6925.350","TLE_LINE1":"1 46698U 20073AE  21362.83640719  .00000562  00000-0  56611-4 0  9993","RA_OF_ASC_NODE":"278.3766","RCS_SIZE":"LARGE","PERIAPSIS":"545.921","LAUNCH_DATE":"2020-10-18","PERIOD":"95.592","MEAN_MOTION_DOT":"0.00000562","REF_FRAME":"TEME","OBJECT_TYPE":"PAYLOAD","MEAN_ANOMALY":"311.6903","REV_AT_EPOCH":"6624"}];
